EUTELSAT 8 WEST B       
1 40875U 15039B   25317.80950652 -.00000065  00000+0  00000+0 0  9995
2 40875   0.0694   7.7728 0004066 228.8823  99.9548  1.00272095 37498
EUTELSAT 9B             
1 41310U 16005A   25317.82378509  .00000062  00000+0  00000+0 0  9997
2 41310   0.0580  76.3406 0004415 178.8486 103.5693  1.00269989 35959
EUTELSAT 65 WEST A      
1 41382U 16014A   25317.79815311 -.00000276  00000+0  00000+0 0  9997
2 41382   0.1037  59.7627 0002630 186.3393  29.2144  1.00270663 35376
EUTELSAT 117 WEST B     
1 41589U 16038B   25316.57498088 -.00000015  00000+0  00000+0 0  9996
2 41589   0.0087 158.0807 0000301 285.8981  57.9745  1.00272134 34495
EUTELSAT 172B           
1 42741U 17029B   25317.63113274 -.00000006  00000+0  00000+0 0  9997
2 42741   0.0281 156.7821 0000077 163.3874 132.0414  1.00270097 31563
EUTELSAT 7C             
1 44334U 19034B   25317.81253986  .00000049  00000+0  00000+0 0  9996
2 44334   0.0687 182.8617 0003164  32.0187 137.8375  1.00271872  4678
EUTELSAT 5 WEST B       
1 44624U 19067A   25317.81011318 -.00000042  00000+0  00000+0 0  9999
2 44624   0.0665 353.0356 0003405 243.3513 103.4364  1.00271437 22276
EUTELSAT KONNECT        
1 45027U 20005B   25316.67100810  .00000047  00000+0  00000+0 0  9994
2 45027   0.0649  95.1527 0001467 174.8565  30.8039  1.00272493 22153
